SL-14 R/B               
1 20511U 90018B   26197.17472692  .00000204  00000+0  22587-4 0  9993
2 20511  82.5216 103.0148 0016956  33.7822 326.4469 14.82234407941614
HST                     
1 20580U 90037B   26197.21735951  .00003185  00000+0  95693-4 0  9994
2 20580  28.4722 242.1156 0002182 113.0880 246.9946 15.31066694793029
SL-16 R/B               
1 20625U 90046B   26196.93158552  .00000264  00000+0  16082-3 0  9997
2 20625  70.9987  28.5771 0012387 113.0227 247.2203 14.15025153866539
COSMOS 2084             
1 20663U 90055A   26197.14089301  .00000789  00000+0  67316-4 0  9997
2 20663  62.7882 257.2591 0008207 319.0540  40.9944 15.06225774955662
SL-6 R/B(2)             
1 20666U 90055D   26197.23635510  .00000945  00000+0  81239-4 0  9993
2 20666  62.7805 176.5173 0045304   9.1305 351.0607 15.04090140957528
SL-8 R/B                
1 20775U 90078B   26196.94584781  .00009752  00000+0  27651-3 0  9991
2 20775  82.9039 135.6316 0343325 300.9826  55.8080 14.93590351828416
SL-8 R/B                
1 21088U 91006B   26197.13622939  .00000090  00000+0  74499-4 0  9990
2 21088  82.9407  74.4958 0023383  38.0097 115.0763 13.77509348781752
OKEAN-3                 
1 21397U 91039A   26197.11952568  .00001767  00000+0  12097-3 0  9998
2 21397  82.5143 212.3217 0012473 251.1524 108.8350 15.05437470884351
COSMOS 2151             
1 21422U 91042A   26197.13530271  .00000765  00000+0  58492-4 0  9993
2 21422  82.4982 319.7437 0011869 352.2930   7.8110 15.00514390882451
SL-14 R/B               
1 21423U 91042B   26197.11992015  .00000176  00000+0  19231-4 0  9994
2 21423  82.4932  99.7644 0017061 173.8981 186.2444 14.81918315872099
ERS-1                   
1 21574U 91050A   26197.07984536  .00000164  00000+0  67063-4 0  9997
2 21574  98.7796 218.4833 0031901 179.1473 180.9774 14.39533565834209
ARIANE 40 R/B           
1 21610U 91050F   26197.10342985  .00000115  00000+0  46915-4 0  9997
2 21610  98.1862 244.3917 0004122  59.4453 300.7145 14.42972173837519
INTERCOSMOS 25          
1 21819U 91086A   26197.08369073  .00000069  00000+0  10539-4 0  9992
2 21819  82.6006 232.3233 1484619 200.0074 153.6347 12.12240627512249
SL-8 R/B                
1 21876U 92008B   26197.06866882  .00000094  00000+0  80381-4 0  9998
2 21876  82.9272 172.3140 0035717 134.2327 295.2034 13.75983948727074
SL-8 R/B                
1 21938U 92020B   26197.16130933  .00000010  00000+0 -51996-5 0  9993
2 21938  82.9280  58.3324 0027931 300.7035 177.6522 13.75550179718794
USA 81                  
1 21949U 92023A   26197.12540572  .00000102  00000+0  30324-4 0  9990
2 21949  85.0050  57.3014 0001932  65.2552 294.8842 14.32405104113179
COSMOS 2219             
1 22219U 92076A   26197.19286064 -.00000226  00000+0 -93798-4 0  9992
2 22219  71.0611 109.4381 0018329 355.9542   4.1430 14.14108359736549
SL-16 R/B               
1 22220U 92076B   26197.17985740  .00000093  00000+0  70024-4 0  9996
2 22220  71.0004 277.7073 0015036 260.9555 122.3737 14.16877753740030
COSMOS 2221             
1 22236U 92080A   26196.95623096  .00000834  00000+0  70777-4 0  9994
2 22236  82.5046 156.2013 0015766 117.9325 242.3495 14.96605212799979
SL-16 R/B               
1 22285U 92093B   26197.14622045 -.00000248  00000+0 -10240-3 0  9996
2 22285  71.0216  94.5989 0002239 132.2455 227.8858 14.15465450731332
COSMOS 2228             
1 22286U 92094A   26197.15162838  .00000784  00000+0  64531-4 0  9994
2 22286  82.5188 114.2994 0016382 225.7183 134.2697 14.97676985795287
SL-16 R/B               
1 22566U 93016B   26196.70530398  .00000225  00000+0  14002-3 0  9997
2 22566  71.0085 306.3093 0008822 137.0399 223.1414 14.15312880720289
COSMOS 2242             
1 22626U 93024A   26196.92385626  .00000881  00000+0  74146-4 0  9993
2 22626  82.5198 144.0497 0014709 229.9287 130.0646 14.96986094799575
SL-16 R/B               
1 22803U 93059B   26197.14549403 -.00000074  00000+0 -12594-4 0  9993
2 22803  70.9901 100.2368 0016700   7.1032 353.0325 14.17249367697737
ARIANE 40 R/B           
1 22830U 93061H   26197.18398176  .00000068  00000+0  40771-4 0  9998
2 22830  98.4806 263.4367 0009506 262.4796  97.5308 14.32918759712505
COSMOS 2278             
1 23087U 94023A   26197.17253398  .00000040  00000+0  45371-4 0  9998
2 23087  71.0522 266.2814 0009582 204.0865 155.9810 14.14393379662970
SL-16 R/B               
1 23088U 94023B   26197.16134909  .00000158  00000+0  10607-3 0  9997
2 23088  70.9985 161.0827 0001394 124.5523 235.5731 14.15024856664261
SL-16 R/B               
1 23343U 94074B   26197.09434779  .00000185  00000+0  31246-4 0  9990
2 23343  97.6986 222.6096 0007235 151.6316 274.3259 14.79524746706238
SL-16 R/B               
1 23405U 94077B   26196.95150784 -.00000035  00000+0  63539-5 0  9993
2 23405  70.9821  82.6484 0004088 302.7536  57.3192 14.15574223634386
ARIANE 40+ R/B          
1 23561U 95021B   26197.16528323  .00000112  00000+0  49577-4 0  9998
2 23561  98.4400 266.8199 0007926 113.9684 274.3151 14.39847862637732
SL-16 R/B               
1 23705U 95058B   26197.17666860  .00000219  00000+0  13651-3 0  9999
2 23705  71.0209 270.4948 0014622 281.5256  78.4225 14.15509270586030
